{
    "EGXT 181339Z 1815/1818 30006KT 9999 SCT035": {
        "Known cloud failure": {
            "metar": "EGXT 181450Z 27006KT CAVOK",
            "test time": "20200618T1500Z",
            "expected": ""
        }
    },
    "description": "Tests for cases highlighted as failing."
}
