{
    "EGTE 181339Z 1815/1818 30006KT 9999 BKN045": {
        "Known cloud failure": {
            "metar": "EGTE 181450Z 27006KT CAVOK",
            "test time": "20200618T1500Z",
            "expected": "EGTE TAF bust by cloud"
        }
    },
    "description": "Tests for cases highlighted as failing."
}
